satname,norad_id,inclination_deg,eccentricity,mean_motion_rev_per_day,perigee_km,apogee_km,l1,l2
STARLINK-1225,45187,53.1581,0.0002057,15.31354344,470.3615455970639,473.17959757201334,1 45187U 20012K   26114.58552060  .00031422  00000+0  10310-2 0  9993,2 45187  53.1581 186.4133 0002057  26.8015 333.3092 15.31354344341961
STARLINK-1230,45189,53.1575,0.0002116,15.31369027,470.27735503110125,473.17621738542493,1 45189U 20012M   26114.52970257  .00033266  00000+0  10901-2 0  9995,2 45189  53.1575 186.7290 0002116  34.2532 325.8605 15.31369027339187
STARLINK-1234,45190,53.0407,0.0009078,15.6870261,356.4918065069596,368.73030868032765,1 45190U 20012N   26114.66232113  .00049554  00000+0  42795-3 0  9998,2 45190  53.0407  99.2727 0009078  71.8064 288.3940 15.68702610343084
STARLINK-1269,45197,53.1581,0.0001856,15.31409059,470.33609994816834,472.8787250740934,1 45197U 20012V   26114.59118913  .00034714  00000+0  11354-2 0  9996,2 45197  53.1581 186.2967 0001856  17.1529 342.9535 15.31409059341944
STARLINK-1154,45198,53.0423,0.0003957,15.53295229,404.4277967522312,409.79764338069253,1 45198U 20012W   26114.46918466  .00053456  00000+0  83499-3 0  9998,2 45198  53.0423 150.3496 0003957 327.4848  32.5917 15.53295229342395
STARLINK-1199,45201,53.1571,0.000191,15.31317367,470.5724883786879,473.1891951942507,1 45201U 20012Z   26114.43064845  .00031716  00000+0  10417-2 0  9997,2 45201  53.1571 171.2999 0001910  42.9278 317.1872 15.31317367342169
STARLINK-1209,45206,53.0405,0.0012351,15.58968738,382.2803621208632,399.0005962499472,1 45206U 20012AE  26114.23576462  .00082943  00000+0  10402-2 0  9995,2 45206  53.0405 113.1269 0012351  54.1130 306.1026 15.58968738342002
STARLINK-1231,45212,53.0379,0.0003821,15.24846847,488.6205702460011,493.8701522464653,1 45212U 20012AL  26114.54708690  .00028802  00000+0  11533-2 0  9996,2 45212  53.0379 164.5058 0003821 316.7943  43.2753 15.24846847342214
STARLINK-1271,45217,53.1581,0.0002101,15.31202582,470.7839131187793,473.6624344638067,1 45217U 20012AR  26114.56043204  .00029550  00000+0  97517-3 0  9994,2 45217  53.1581 170.8341 0002101  32.4407 327.6723 15.31202582342189
STARLINK-1191,45222,53.1559,0.0004906,15.34708553,458.4306429441849,465.14197569529006,1 45222U 20012AW  26114.51920090  .00037331  00000+0  10994-2 0  9991,2 45222  53.1559 145.2263 0004906  33.7614 326.3700 15.34708553342541
STARLINK-1212,45223,53.044,0.000656,15.60926465,380.54305279930577,389.4162618537184,1 45223U 20012AX  26114.56313183  .00069842  00000+0  81716-3 0  9999,2 45223  53.0440 127.7383 0006560   1.3569 358.7460 15.60926465342787
STARLINK-1215,45225,53.1554,0.0002131,15.31486356,469.91729948843295,472.83656232578596,1 45225U 20012AZ  26114.30400156  .00059844  00000+0  19376-2 0  9993,2 45225  53.1554 146.3529 0002131  47.6847 312.4334 15.31486356342467
STARLINK-1221,45227,53.0656,0.0003716,15.43474925,433.33081018260964,438.394974902747,1 45227U 20012BB  26114.84168122  .00012942  00000+0  29320-3 0  9997,2 45227  53.0656  50.6331 0003716 116.0964 244.0424 15.43474925343834
STARLINK-1222,45228,53.0532,7.38e-05,15.52223073,409.73586333873664,410.7378273183067,1 45228U 20012BC  26114.30870580  .00027627  00000+0  45373-3 0  9999,2 45228  53.0532 123.6227 0000738   1.6440 358.4571 15.52223073342706
STARLINK-1226,45229,53.1575,0.0003137,15.39386174,445.7819619492411,450.06463217961846,1 45229U 20012BD  26114.37966759  .00037007  00000+0  93774-3 0  9992,2 45229  53.1575 144.6893 0003137  45.0967 315.0292 15.39386174342435
STARLINK-1227,45230,53.1553,0.0003937,15.39445706,445.05996460896677,450.4346659188068,1 45230U 20012BE  26114.45787580  .00033884  00000+0  85805-3 0  9991,2 45230  53.1553 144.4751 0003937  35.4895 324.6371 15.39445706342560
STARLINK-1246,45235,53.1568,0.000237,15.31550121,469.5635234168594,472.8101029042982,1 45235U 20012BK  26114.66620270  .00041107  00000+0  13353-2 0  9996,2 45235  53.1568 185.6105 0002370  50.1328 309.9881 15.31550121342018
STARLINK-1270,45237,53.0446,0.000538,15.54547495,399.8198209547754,407.1168282840654,1 45237U 20012BM  26114.46394912  .00064138  00000+0  95437-3 0  9990,2 45237  53.0446 127.5835 0005380  22.2457 337.8785 15.54547495342777
STARLINK-1279,45360,53.0387,0.0005997,15.67076866,363.2270988920036,371.3175428314453,1 45360U 20019A   26114.50709846  .00071085  00000+0  65266-3 0  9991,2 45360  53.0387 234.7718 0005997 317.4504  42.6046 15.67076866337830
STARLINK-1301,45361,53.0389,0.0004292,15.70758851,353.8364069498757,359.61761421656047,1 45361U 20019B   26114.61799628  .00060511  00000+0  47910-3 0  9999,2 45361  53.0389 237.6522 0004292 350.0529  10.0402 15.70758851337813
STARLINK-1262,45366,53.1575,1.72e-05,15.30378511,474.56425107194445,474.79998804965726,1 45366U 20019G   26114.86839341  .00032392  00000+0  10950-2 0  9997,2 45366  53.1575 310.8077 0000172 156.4886 203.6123 15.30378511336829
STARLINK-1273,45367,53.0492,0.0003218,15.50990874,411.6461046778004,416.01741577188113,1 45367U 20019H   26114.76925097  .00059526  00000+0  10083-2 0  9996,2 45367  53.0492 294.4475 0003218 215.2765 144.8030 15.50990874337031
STARLINK-1277,45369,53.048,0.0004752,15.56799672,393.7067352078966,400.14575531619266,1 45369U 20019K   26114.70816606  .00078694  00000+0  10744-2 0  9998,2 45369  53.0480 290.8002 0004752 207.7325 152.3433 15.56799672337083
STARLINK-1281,45370,53.1587,3.13e-05,15.31368525,471.51388240026336,471.94268396699044,1 45370U 20019L   26114.84179091  .00030391  00000+0  99732-3 0  9992,2 45370  53.1587 310.8397 0000313 267.7423  92.3542 15.31368525336825
STARLINK-1300,45374,53.1615,6.56e-05,15.31523659,470.8163881900409,471.7150298254637,1 45374U 20019Q   26114.86311178  .00037893  00000+0  12334-2 0  9998,2 45374  53.1615 310.7391 0000656   5.3593 354.7415 15.31523659336823
STARLINK-1302,45375,53.0492,9.92e-05,15.6164413,382.23677644389863,383.57816766715405,1 45375U 20019R   26114.83083538  .00087941  00000+0  99793-3 0  9996,2 45375  53.0492 287.7147 0000992 194.7573 165.3411 15.61644130337130
STARLINK-1304,45376,53.047,0.0002481,15.55979395,397.6256585270803,400.98862631054817,1 45376U 20019S   26114.68078891  .00068313  00000+0  96389-3 0  9996,2 45376  53.0470 288.0481 0002481 240.8920 119.1843 15.55979395337117
STARLINK-1305,45377,53.0409,0.0006973,15.62257779,376.4236391673985,385.85012252162323,1 45377U 20019T   26114.84157362  .00096767  00000+0  10695-2 0  9995,2 45377  53.0409 268.1944 0006973 280.4336  79.5891 15.62257779337412
STARLINK-1319,45379,53.0422,0.0001748,15.70864724,355.24719534409905,357.60159800837664,1 45379U 20019V   26114.81434828  .00059054  00000+0  46587-3 0  9997,2 45379  53.0422 262.2755 0001748 276.5166  83.5652 15.70864724337497
STARLINK-1266,45383,53.0465,0.0003111,15.52618907,406.97151291948103,411.19452121409995,1 45383U 20019Z   26114.85081979  .00065374  00000+0  10432-2 0  9992,2 45383  53.0465 271.7313 0003111 222.7249 137.3519 15.52618907337350
STARLINK-1267,45384,53.0482,0.0003714,15.58030846,390.84168672870237,395.87155218923544,1 45384U 20019AA  26114.66813132  .00078153  00000+0  10194-2 0  9990,2 45384  53.0482 265.0460 0003714 325.6748  34.4023 15.58030846337437
STARLINK-1272,45386,53.0406,0.0006442,15.64900906,369.1743475024323,377.8731872351109,1 45386U 20019AC  26114.64751273  .00068242  00000+0  68398-3 0  9995,2 45386  53.0406 245.6614 0006442 299.3751  60.6619 15.64900906337704
STARLINK-1274,45387,53.0247,0.0006937,15.54505719,398.8853400388334,408.2943078343642,1 45387U 20019AD  26114.66812580  .00064741  00000+0  96429-3 0  9993,2 45387  53.0247 241.8788 0006937 337.1780  22.8920 15.54505719337752
STARLINK-1280,45388,53.0401,0.0002708,15.71506663,352.7670650346563,356.41351013361145,1 45388U 20019AE  26114.65372141  .00059131  00000+0  45405-3 0  9992,2 45388  53.0401 255.6797 0002708 310.6742  49.4040 15.71506663337558
STARLINK-1283,45389,53.0414,0.0001757,15.66232724,368.5101944802718,370.88138292222175,1 45389U 20019AF  26114.63690238  .00046564  00000+0  44579-3 0  9998,2 45389  53.0414 245.2101 0001757 354.7796   5.3200 15.66232724337713
STARLINK-1284,45390,53.0454,0.0003466,15.59834933,385.7892021317357,390.4795814605295,1 45390U 20019AG  26114.66899545  .00072463  00000+0  88399-3 0  9990,2 45390  53.0454 268.3665 0003466 242.2398 117.8263 15.59834933337381
STARLINK-1297,45395,53.0432,0.0004472,15.63307512,375.0893272170797,381.1321151789198,1 45395U 20019AM  26114.85118870  .00089782  00000+0  95433-3 0  9990,2 45395  53.0432 266.2232 0004472 242.5105 117.5454 15.63307512336613
STARLINK-1307,45397,53.0537,8.17e-05,15.53734067,405.2807881832905,406.389289214414,1 45397U 20019AP  26114.85630153  .00031218  00000+0  48443-3 0  9995,2 45397  53.0537 268.5867 0000817 103.8755 256.2345 15.53734067337225
STARLINK-1255,45399,53.0371,0.0004524,15.60466182,383.24927842289526,389.36974962878594,1 45399U 20019AR  26114.73380001  .00079203  00000+0  94170-3 0  9992,2 45399  53.0371 239.6526 0004524 320.8495  39.2190 15.60466182337602
STARLINK-1260,45404,53.159,0.0002313,15.337881,462.9398334165053,466.1052477199719,1 45404U 20019AW  26114.82981655  .00044988  00000+0  13607-2 0  9998,2 45404  53.1590 274.4312 0002313 292.4199  67.6558 15.33788100337040
STARLINK-1263,45405,53.1591,0.0001251,15.31344024,470.94441942720005,472.6582740015474,1 45405U 20019AX  26114.66137434  .00035178  00000+0  11527-2 0  9999,2 45405  53.1591 275.6680 0001251 345.3539  14.7426 15.31344024337014
STARLINK-1265,45406,53.1588,0.0001632,15.34000102,462.7754603935591,465.008698685122,1 45406U 20019AY  26114.83144356  .00035325  00000+0  10651-2 0  9991,2 45406  53.1588 274.5105 0001632 261.4728  98.6090 15.34000102337042
STARLINK-1278,45408,53.042,0.0004272,15.64600878,371.502194289762,377.27155068641605,1 45408U 20019BA  26114.77375250  .00080265  00000+0  81237-3 0  9997,2 45408  53.0420 265.8166 0004272 277.9824  82.0706 15.64600878337152
